SL-3 R/B                
1 13403U 82079B   25327.69876947  .00004831  00000+0  20077-3 0  9996
2 13403  81.1462 318.1024 0026030 160.9314 199.2899 15.23285124361559
SL-14 R/B               
1 13553U 82092B   25327.76490703  .00000605  00000+0  65465-4 0  9993
2 13553  82.5689 240.4552 0018942 295.0776 120.9281 14.86525694313199
SL-3 R/B                
1 13819U 83010B   25327.70742619  .00012546  00000+0  28457-3 0  9995
2 13819  81.1028 131.8373 0018066  56.8059 303.4913 15.42757250341586
SL-3 R/B                
1 14208U 83075B   25327.69759672  .00010224  00000+0  29577-3 0  9999
2 14208  97.6102 323.5500 0020992 246.7019 113.2014 15.35597525313872
COSMOS 1536             
1 14699U 84013A   25327.74482729  .00005282  00000+0  22801-3 0  9999
2 14699  82.5467 212.9955 0013517 300.4190  59.5710 15.22220939256498
SL-14 R/B               
1 14820U 84027B   25327.56485391  .00000494  00000+0  53856-4 0  9993
2 14820  82.5414 344.5401 0017127 329.4926  30.5292 14.85844284231875
SL-8 R/B                
1 15483U 85006B   25327.76362662  .00000321  00000+0  11544-3 0  9990
2 15483  74.0451  96.0460 0017902  33.9830  70.7489 14.37703869138807
SL-12 R/B(2)            
1 15772U 85042D   25327.40935328  .00000038  00000+0  38702-4 0  9998
2 15772  71.1077 312.2581 0037554 289.7887 177.3314 14.21942785 99289
SL-14 R/B               
1 15945U 85069B   25327.44718740  .00000670  00000+0  73146-4 0  9993
2 15945  82.5248 124.8403 0018785 179.8821 180.2404 14.86289904157050
SL-16 R/B               
1 16182U 85097B   25327.58271758  .00000187  00000+0  11758-3 0  9999
2 16182  71.0041   3.9353 0005657  44.8362  67.7458 14.16581514 72200
SL-14 R/B               
1 16496U 86006B   25327.58466380  .00000719  00000+0  74269-4 0  9993
2 16496  82.5276 359.5756 0075197 264.3147  94.9492 14.86632882133444
COSMOS 1743             
1 16719U 86034A   25327.62749521  .00022785  00000+0  39316-3 0  9998
2 16719  82.5353 184.4212 0005753 337.9383  22.1620 15.50857483163773
