CCSDS_OMM_VERS = 2.0
CREATION_DATE  = 
ORIGINATOR     = 

OBJECT_NAME    = SL-3 R/B
OBJECT_ID      = 1982-079B
CENTER_NAME    = EARTH
REF_FRAME      = TEME
TIME_SYSTEM    = UTC
MEAN_ELEMENT_THEORY = SGP/SGP4

EPOCH          = 2025-11-23T16:46:13.682208
MEAN_MOTION    = 15.23285124
ECCENTRICITY   = .002603
INCLINATION    = 81.1462
RA_OF_ASC_NODE = 318.1024
ARG_OF_PERICENTER = 160.9314
MEAN_ANOMALY   = 199.2899

EPHEMERIS_TYPE = 0
CLASSIFICATION_TYPE = U
NORAD_CAT_ID   = 13403
ELEMENT_SET_NO = 999
REV_AT_EPOCH   = 36155
BSTAR          = .20077E-3
MEAN_MOTION_DOT = .4831E-4
MEAN_MOTION_DDOT = 0

CCSDS_OMM_VERS = 2.0
CREATION_DATE  = 
ORIGINATOR     = 

OBJECT_NAME    = SL-14 R/B
OBJECT_ID      = 1982-092B
CENTER_NAME    = EARTH
REF_FRAME      = TEME
TIME_SYSTEM    = UTC
MEAN_ELEMENT_THEORY = SGP/SGP4

EPOCH          = 2025-11-23T18:21:27.967392
MEAN_MOTION    = 14.86525694
ECCENTRICITY   = .0018942
INCLINATION    = 82.5689
RA_OF_ASC_NODE = 240.4552
ARG_OF_PERICENTER = 295.0776
MEAN_ANOMALY   = 120.9281

EPHEMERIS_TYPE = 0
CLASSIFICATION_TYPE = U
NORAD_CAT_ID   = 13553
ELEMENT_SET_NO = 999
REV_AT_EPOCH   = 31319
BSTAR          = .65465E-4
MEAN_MOTION_DOT = .605E-5
MEAN_MOTION_DDOT = 0

CCSDS_OMM_VERS = 2.0
CREATION_DATE  = 
ORIGINATOR     = 

OBJECT_NAME    = SL-3 R/B
OBJECT_ID      = 1983-010B
CENTER_NAME    = EARTH
REF_FRAME      = TEME
TIME_SYSTEM    = UTC
MEAN_ELEMENT_THEORY = SGP/SGP4

EPOCH          = 2025-11-23T16:58:41.622816
MEAN_MOTION    = 15.42757250
ECCENTRICITY   = .0018066
INCLINATION    = 81.1028
RA_OF_ASC_NODE = 131.8373
ARG_OF_PERICENTER = 56.8059
MEAN_ANOMALY   = 303.4913

EPHEMERIS_TYPE = 0
CLASSIFICATION_TYPE = U
NORAD_CAT_ID   = 13819
ELEMENT_SET_NO = 999
REV_AT_EPOCH   = 34158
BSTAR          = .28457E-3
MEAN_MOTION_DOT = .12546E-3
MEAN_MOTION_DDOT = 0

CCSDS_OMM_VERS = 2.0
CREATION_DATE  = 
ORIGINATOR     = 

OBJECT_NAME    = SL-3 R/B
OBJECT_ID      = 1983-075B
CENTER_NAME    = EARTH
REF_FRAME      = TEME
TIME_SYSTEM    = UTC
MEAN_ELEMENT_THEORY = SGP/SGP4

EPOCH          = 2025-11-23T16:44:32.356608
MEAN_MOTION    = 15.35597525
ECCENTRICITY   = .0020992
INCLINATION    = 97.6102
RA_OF_ASC_NODE = 323.5500
ARG_OF_PERICENTER = 246.7019
MEAN_ANOMALY   = 113.2014

EPHEMERIS_TYPE = 0
CLASSIFICATION_TYPE = U
NORAD_CAT_ID   = 14208
ELEMENT_SET_NO = 999
REV_AT_EPOCH   = 31387
BSTAR          = .29577E-3
MEAN_MOTION_DOT = .10224E-3
MEAN_MOTION_DDOT = 0

CCSDS_OMM_VERS = 2.0
CREATION_DATE  = 
ORIGINATOR     = 

OBJECT_NAME    = COSMOS 1536
OBJECT_ID      = 1984-013A
CENTER_NAME    = EARTH
REF_FRAME      = TEME
TIME_SYSTEM    = UTC
MEAN_ELEMENT_THEORY = SGP/SGP4

EPOCH          = 2025-11-23T17:52:33.077856
MEAN_MOTION    = 15.22220939
ECCENTRICITY   = .0013517
INCLINATION    = 82.5467
RA_OF_ASC_NODE = 212.9955
ARG_OF_PERICENTER = 300.4190
MEAN_ANOMALY   = 59.5710

EPHEMERIS_TYPE = 0
CLASSIFICATION_TYPE = U
NORAD_CAT_ID   = 14699
ELEMENT_SET_NO = 999
REV_AT_EPOCH   = 25649
BSTAR          = .22801E-3
MEAN_MOTION_DOT = .5282E-4
MEAN_MOTION_DDOT = 0

CCSDS_OMM_VERS = 2.0
CREATION_DATE  = 
ORIGINATOR     = 

OBJECT_NAME    = SL-14 R/B
OBJECT_ID      = 1984-027B
CENTER_NAME    = EARTH
REF_FRAME      = TEME
TIME_SYSTEM    = UTC
MEAN_ELEMENT_THEORY = SGP/SGP4

EPOCH          = 2025-11-23T13:33:23.377824
MEAN_MOTION    = 14.85844284
ECCENTRICITY   = .0017127
INCLINATION    = 82.5414
RA_OF_ASC_NODE = 344.5401
ARG_OF_PERICENTER = 329.4926
MEAN_ANOMALY   = 30.5292

EPHEMERIS_TYPE = 0
CLASSIFICATION_TYPE = U
NORAD_CAT_ID   = 14820
ELEMENT_SET_NO = 999
REV_AT_EPOCH   = 23187
BSTAR          = .53856E-4
MEAN_MOTION_DOT = .494E-5
MEAN_MOTION_DDOT = 0

CCSDS_OMM_VERS = 2.0
CREATION_DATE  = 
ORIGINATOR     = 

OBJECT_NAME    = SL-8 R/B
OBJECT_ID      = 1985-006B
CENTER_NAME    = EARTH
REF_FRAME      = TEME
TIME_SYSTEM    = UTC
MEAN_ELEMENT_THEORY = SGP/SGP4

EPOCH          = 2025-11-23T18:19:37.339968
MEAN_MOTION    = 14.37703869
ECCENTRICITY   = .0017902
INCLINATION    = 74.0451
RA_OF_ASC_NODE = 96.0460
ARG_OF_PERICENTER = 33.9830
MEAN_ANOMALY   = 70.7489

EPHEMERIS_TYPE = 0
CLASSIFICATION_TYPE = U
NORAD_CAT_ID   = 15483
ELEMENT_SET_NO = 999
REV_AT_EPOCH   = 13880
BSTAR          = .11544E-3
MEAN_MOTION_DOT = .321E-5
MEAN_MOTION_DDOT = 0

CCSDS_OMM_VERS = 2.0
CREATION_DATE  = 
ORIGINATOR     = 

OBJECT_NAME    = SL-12 R/B(2)
OBJECT_ID      = 1985-042D
CENTER_NAME    = EARTH
REF_FRAME      = TEME
TIME_SYSTEM    = UTC
MEAN_ELEMENT_THEORY = SGP/SGP4

EPOCH          = 2025-11-23T09:49:28.123392
MEAN_MOTION    = 14.21942785
ECCENTRICITY   = .0037554
INCLINATION    = 71.1077
RA_OF_ASC_NODE = 312.2581
ARG_OF_PERICENTER = 289.7887
MEAN_ANOMALY   = 177.3314

EPHEMERIS_TYPE = 0
CLASSIFICATION_TYPE = U
NORAD_CAT_ID   = 15772
ELEMENT_SET_NO = 999
REV_AT_EPOCH   = 9928
BSTAR          = .38702E-4
MEAN_MOTION_DOT = .38E-6
MEAN_MOTION_DDOT = 0

CCSDS_OMM_VERS = 2.0
CREATION_DATE  = 
ORIGINATOR     = 

OBJECT_NAME    = SL-14 R/B
OBJECT_ID      = 1985-069B
CENTER_NAME    = EARTH
REF_FRAME      = TEME
TIME_SYSTEM    = UTC
MEAN_ELEMENT_THEORY = SGP/SGP4

EPOCH          = 2025-11-23T10:43:56.991360
MEAN_MOTION    = 14.86289904
ECCENTRICITY   = .0018785
INCLINATION    = 82.5248
RA_OF_ASC_NODE = 124.8403
ARG_OF_PERICENTER = 179.8821
MEAN_ANOMALY   = 180.2404

EPHEMERIS_TYPE = 0
CLASSIFICATION_TYPE = U
NORAD_CAT_ID   = 15945
ELEMENT_SET_NO = 999
REV_AT_EPOCH   = 15705
BSTAR          = .73146E-4
MEAN_MOTION_DOT = .67E-5
MEAN_MOTION_DDOT = 0

CCSDS_OMM_VERS = 2.0
CREATION_DATE  = 
ORIGINATOR     = 

OBJECT_NAME    = SL-16 R/B
OBJECT_ID      = 1985-097B
CENTER_NAME    = EARTH
REF_FRAME      = TEME
TIME_SYSTEM    = UTC
MEAN_ELEMENT_THEORY = SGP/SGP4

EPOCH          = 2025-11-23T13:59:06.798912
MEAN_MOTION    = 14.16581514
ECCENTRICITY   = .0005657
INCLINATION    = 71.0041
RA_OF_ASC_NODE = 3.9353
ARG_OF_PERICENTER = 44.8362
MEAN_ANOMALY   = 67.7458

EPHEMERIS_TYPE = 0
CLASSIFICATION_TYPE = U
NORAD_CAT_ID   = 16182
ELEMENT_SET_NO = 999
REV_AT_EPOCH   = 7220
BSTAR          = .11758E-3
MEAN_MOTION_DOT = .187E-5
MEAN_MOTION_DDOT = 0

CCSDS_OMM_VERS = 2.0
CREATION_DATE  = 
ORIGINATOR     = 

OBJECT_NAME    = SL-14 R/B
OBJECT_ID      = 1986-006B
CENTER_NAME    = EARTH
REF_FRAME      = TEME
TIME_SYSTEM    = UTC
MEAN_ELEMENT_THEORY = SGP/SGP4

EPOCH          = 2025-11-23T14:01:54.952320
MEAN_MOTION    = 14.86632882
ECCENTRICITY   = .0075197
INCLINATION    = 82.5276
RA_OF_ASC_NODE = 359.5756
ARG_OF_PERICENTER = 264.3147
MEAN_ANOMALY   = 94.9492

EPHEMERIS_TYPE = 0
CLASSIFICATION_TYPE = U
NORAD_CAT_ID   = 16496
ELEMENT_SET_NO = 999
REV_AT_EPOCH   = 13344
BSTAR          = .74269E-4
MEAN_MOTION_DOT = .719E-5
MEAN_MOTION_DDOT = 0

CCSDS_OMM_VERS = 2.0
CREATION_DATE  = 
ORIGINATOR     = 

OBJECT_NAME    = COSMOS 1743
OBJECT_ID      = 1986-034A
CENTER_NAME    = EARTH
REF_FRAME      = TEME
TIME_SYSTEM    = UTC
MEAN_ELEMENT_THEORY = SGP/SGP4

EPOCH          = 2025-11-23T15:03:35.586144
MEAN_MOTION    = 15.50857483
ECCENTRICITY   = .0005753
INCLINATION    = 82.5353
RA_OF_ASC_NODE = 184.4212
ARG_OF_PERICENTER = 337.9383
MEAN_ANOMALY   = 22.1620

EPHEMERIS_TYPE = 0
CLASSIFICATION_TYPE = U
NORAD_CAT_ID   = 16719
ELEMENT_SET_NO = 999
REV_AT_EPOCH   = 16377
BSTAR          = .39316E-3
MEAN_MOTION_DOT = .22785E-3
MEAN_MOTION_DDOT = 0

